ONEWEB-0560             
1 55145U 23004F   25205.59174788 -.00000012  00000+0 -63189-4 0  9997
2 55145  87.9115  40.5620 0001958  80.6557 279.4797 13.18687148126533
ONEWEB-0565             
1 55146U 23004G   25205.58516738  .00000027  00000+0  36636-4 0  9993
2 55146  87.9106  40.6212 0001535  71.4210 288.7088 13.18685698126520
ONEWEB-0567             
1 55147U 23004H   25205.57857198  .00000045  00000+0  81548-4 0  9993
2 55147  87.9113  40.5796 0001784  75.1332 284.9997 13.18686226126522
ONEWEB-0569             
1 55148U 23004J   25205.52063817 -.00000124  00000+0 -37368-3 0  9996
2 55148  87.8964  25.3003 0002258  66.3693 293.7673 13.13468476127167
ONEWEB-0570             
1 55149U 23004K   25205.56866844  .00000008  00000+0 -12715-4 0  9992
2 55149  87.9111  40.5842 0001193  86.0830 274.0439 13.18690272126518
ONEWEB-0571             
1 55150U 23004L   25205.56206889  .00000050  00000+0  93941-4 0  9997
2 55150  87.9107  40.5920 0001907  47.7920 312.3374 13.18686298126527
ONEWEB-0572             
1 55151U 23004M   25205.62694554  .00000030  00000+0  43928-4 0  9993
2 55151  87.9047  71.0650 0001607  77.3007 282.8304 13.17650104124340
ONEWEB-0573             
1 55152U 23004N   25205.55548537  .00000113  00000+0  25402-3 0  9993
2 55152  87.9106  40.6003 0001297  59.1169 301.0091 13.18685780126510
