<?xml version="1.0" encoding="UTF-8"?>
<ndm xmlns:xsi="http://www.w3.org/2001/XMLSchema-instance" xsi:noNamespaceSchemaLocation="https://sanaregistry.org/r/ndmxml_unqualified/ndmxml-2.0.0-master-2.0.xsd">
<omm id="CCSDS_OMM_VERS" version="2.0">
<header><CREATION_DATE/><ORIGINATOR/></header><body><segment><metadata><OBJECT_NAME>ONEWEB-0560</OBJECT_NAME><OBJECT_ID>2023-004F</OBJECT_ID><CENTER_NAME>EARTH</CENTER_NAME><REF_FRAME>TEME</REF_FRAME><TIME_SYSTEM>UTC</TIME_SYSTEM><MEAN_ELEMENT_THEORY>SGP4</MEAN_ELEMENT_THEORY></metadata><data><meanElements><EPOCH>2025-07-24T14:12:07.016832</EPOCH><MEAN_MOTION>13.18687148</MEAN_MOTION><ECCENTRICITY>.0001958</ECCENTRICITY><INCLINATION>87.9115</INCLINATION><RA_OF_ASC_NODE>40.5620</RA_OF_ASC_NODE><ARG_OF_PERICENTER>80.6557</ARG_OF_PERICENTER><MEAN_ANOMALY>279.4797</MEAN_ANOMALY></meanElements><tleParameters><EPHEMERIS_TYPE>0</EPHEMERIS_TYPE><CLASSIFICATION_TYPE>U</CLASSIFICATION_TYPE><NORAD_CAT_ID>55145</NORAD_CAT_ID><ELEMENT_SET_NO>999</ELEMENT_SET_NO><REV_AT_EPOCH>12653</REV_AT_EPOCH><BSTAR>-.63189E-4</BSTAR><MEAN_MOTION_DOT>-.12E-6</MEAN_MOTION_DOT><MEAN_MOTION_DDOT>0</MEAN_MOTION_DDOT></tleParameters></data></segment></body></omm>
<omm id="CCSDS_OMM_VERS" version="2.0">
<header><CREATION_DATE/><ORIGINATOR/></header><body><segment><metadata><OBJECT_NAME>ONEWEB-0565</OBJECT_NAME><OBJECT_ID>2023-004G</OBJECT_ID><CENTER_NAME>EARTH</CENTER_NAME><REF_FRAME>TEME</REF_FRAME><TIME_SYSTEM>UTC</TIME_SYSTEM><MEAN_ELEMENT_THEORY>SGP4</MEAN_ELEMENT_THEORY></metadata><data><meanElements><EPOCH>2025-07-24T14:02:38.461632</EPOCH><MEAN_MOTION>13.18685698</MEAN_MOTION><ECCENTRICITY>.0001535</ECCENTRICITY><INCLINATION>87.9106</INCLINATION><RA_OF_ASC_NODE>40.6212</RA_OF_ASC_NODE><ARG_OF_PERICENTER>71.4210</ARG_OF_PERICENTER><MEAN_ANOMALY>288.7088</MEAN_ANOMALY></meanElements><tleParameters><EPHEMERIS_TYPE>0</EPHEMERIS_TYPE><CLASSIFICATION_TYPE>U</CLASSIFICATION_TYPE><NORAD_CAT_ID>55146</NORAD_CAT_ID><ELEMENT_SET_NO>999</ELEMENT_SET_NO><REV_AT_EPOCH>12652</REV_AT_EPOCH><BSTAR>.36636E-4</BSTAR><MEAN_MOTION_DOT>.27E-6</MEAN_MOTION_DOT><MEAN_MOTION_DDOT>0</MEAN_MOTION_DDOT></tleParameters></data></segment></body></omm>
<omm id="CCSDS_OMM_VERS" version="2.0">
<header><CREATION_DATE/><ORIGINATOR/></header><body><segment><metadata><OBJECT_NAME>ONEWEB-0567</OBJECT_NAME><OBJECT_ID>2023-004H</OBJECT_ID><CENTER_NAME>EARTH</CENTER_NAME><REF_FRAME>TEME</REF_FRAME><TIME_SYSTEM>UTC</TIME_SYSTEM><MEAN_ELEMENT_THEORY>SGP4</MEAN_ELEMENT_THEORY></metadata><data><meanElements><EPOCH>2025-07-24T13:53:08.619072</EPOCH><MEAN_MOTION>13.18686226</MEAN_MOTION><ECCENTRICITY>.0001784</ECCENTRICITY><INCLINATION>87.9113</INCLINATION><RA_OF_ASC_NODE>40.5796</RA_OF_ASC_NODE><ARG_OF_PERICENTER>75.1332</ARG_OF_PERICENTER><MEAN_ANOMALY>284.9997</MEAN_ANOMALY></meanElements><tleParameters><EPHEMERIS_TYPE>0</EPHEMERIS_TYPE><CLASSIFICATION_TYPE>U</CLASSIFICATION_TYPE><NORAD_CAT_ID>55147</NORAD_CAT_ID><ELEMENT_SET_NO>999</ELEMENT_SET_NO><REV_AT_EPOCH>12652</REV_AT_EPOCH><BSTAR>.81548E-4</BSTAR><MEAN_MOTION_DOT>.45E-6</MEAN_MOTION_DOT><MEAN_MOTION_DDOT>0</MEAN_MOTION_DDOT></tleParameters></data></segment></body></omm>
<omm id="CCSDS_OMM_VERS" version="2.0">
<header><CREATION_DATE/><ORIGINATOR/></header><body><segment><metadata><OBJECT_NAME>ONEWEB-0569</OBJECT_NAME><OBJECT_ID>2023-004J</OBJECT_ID><CENTER_NAME>EARTH</CENTER_NAME><REF_FRAME>TEME</REF_FRAME><TIME_SYSTEM>UTC</TIME_SYSTEM><MEAN_ELEMENT_THEORY>SGP4</MEAN_ELEMENT_THEORY></metadata><data><meanElements><EPOCH>2025-07-24T12:29:43.137888</EPOCH><MEAN_MOTION>13.13468476</MEAN_MOTION><ECCENTRICITY>.0002258</ECCENTRICITY><INCLINATION>87.8964</INCLINATION><RA_OF_ASC_NODE>25.3003</RA_OF_ASC_NODE><ARG_OF_PERICENTER>66.3693</ARG_OF_PERICENTER><MEAN_ANOMALY>293.7673</MEAN_ANOMALY></meanElements><tleParameters><EPHEMERIS_TYPE>0</EPHEMERIS_TYPE><CLASSIFICATION_TYPE>U</CLASSIFICATION_TYPE><NORAD_CAT_ID>55148</NORAD_CAT_ID><ELEMENT_SET_NO>999</ELEMENT_SET_NO><REV_AT_EPOCH>12716</REV_AT_EPOCH><BSTAR>-.37368E-3</BSTAR><MEAN_MOTION_DOT>-.124E-5</MEAN_MOTION_DOT><MEAN_MOTION_DDOT>0</MEAN_MOTION_DDOT></tleParameters></data></segment></body></omm>
<omm id="CCSDS_OMM_VERS" version="2.0">
<header><CREATION_DATE/><ORIGINATOR/></header><body><segment><metadata><OBJECT_NAME>ONEWEB-0570</OBJECT_NAME><OBJECT_ID>2023-004K</OBJECT_ID><CENTER_NAME>EARTH</CENTER_NAME><REF_FRAME>TEME</REF_FRAME><TIME_SYSTEM>UTC</TIME_SYSTEM><MEAN_ELEMENT_THEORY>SGP4</MEAN_ELEMENT_THEORY></metadata><data><meanElements><EPOCH>2025-07-24T13:38:52.953216</EPOCH><MEAN_MOTION>13.18690272</MEAN_MOTION><ECCENTRICITY>.0001193</ECCENTRICITY><INCLINATION>87.9111</INCLINATION><RA_OF_ASC_NODE>40.5842</RA_OF_ASC_NODE><ARG_OF_PERICENTER>86.0830</ARG_OF_PERICENTER><MEAN_ANOMALY>274.0439</MEAN_ANOMALY></meanElements><tleParameters><EPHEMERIS_TYPE>0</EPHEMERIS_TYPE><CLASSIFICATION_TYPE>U</CLASSIFICATION_TYPE><NORAD_CAT_ID>55149</NORAD_CAT_ID><ELEMENT_SET_NO>999</ELEMENT_SET_NO><REV_AT_EPOCH>12651</REV_AT_EPOCH><BSTAR>-.12715E-4</BSTAR><MEAN_MOTION_DOT>.8E-7</MEAN_MOTION_DOT><MEAN_MOTION_DDOT>0</MEAN_MOTION_DDOT></tleParameters></data></segment></body></omm>
<omm id="CCSDS_OMM_VERS" version="2.0">
<header><CREATION_DATE/><ORIGINATOR/></header><body><segment><metadata><OBJECT_NAME>ONEWEB-0571</OBJECT_NAME><OBJECT_ID>2023-004L</OBJECT_ID><CENTER_NAME>EARTH</CENTER_NAME><REF_FRAME>TEME</REF_FRAME><TIME_SYSTEM>UTC</TIME_SYSTEM><MEAN_ELEMENT_THEORY>SGP4</MEAN_ELEMENT_THEORY></metadata><data><meanElements><EPOCH>2025-07-24T13:29:22.752096</EPOCH><MEAN_MOTION>13.18686298</MEAN_MOTION><ECCENTRICITY>.0001907</ECCENTRICITY><INCLINATION>87.9107</INCLINATION><RA_OF_ASC_NODE>40.5920</RA_OF_ASC_NODE><ARG_OF_PERICENTER>47.7920</ARG_OF_PERICENTER><MEAN_ANOMALY>312.3374</MEAN_ANOMALY></meanElements><tleParameters><EPHEMERIS_TYPE>0</EPHEMERIS_TYPE><CLASSIFICATION_TYPE>U</CLASSIFICATION_TYPE><NORAD_CAT_ID>55150</NORAD_CAT_ID><ELEMENT_SET_NO>999</ELEMENT_SET_NO><REV_AT_EPOCH>12652</REV_AT_EPOCH><BSTAR>.93941E-4</BSTAR><MEAN_MOTION_DOT>.5E-6</MEAN_MOTION_DOT><MEAN_MOTION_DDOT>0</MEAN_MOTION_DDOT></tleParameters></data></segment></body></omm>
<omm id="CCSDS_OMM_VERS" version="2.0">
<header><CREATION_DATE/><ORIGINATOR/></header><body><segment><metadata><OBJECT_NAME>ONEWEB-0572</OBJECT_NAME><OBJECT_ID>2023-004M</OBJECT_ID><CENTER_NAME>EARTH</CENTER_NAME><REF_FRAME>TEME</REF_FRAME><TIME_SYSTEM>UTC</TIME_SYSTEM><MEAN_ELEMENT_THEORY>SGP4</MEAN_ELEMENT_THEORY></metadata><data><meanElements><EPOCH>2025-07-24T15:02:48.094656</EPOCH><MEAN_MOTION>13.17650104</MEAN_MOTION><ECCENTRICITY>.0001607</ECCENTRICITY><INCLINATION>87.9047</INCLINATION><RA_OF_ASC_NODE>71.0650</RA_OF_ASC_NODE><ARG_OF_PERICENTER>77.3007</ARG_OF_PERICENTER><MEAN_ANOMALY>282.8304</MEAN_ANOMALY></meanElements><tleParameters><EPHEMERIS_TYPE>0</EPHEMERIS_TYPE><CLASSIFICATION_TYPE>U</CLASSIFICATION_TYPE><NORAD_CAT_ID>55151</NORAD_CAT_ID><ELEMENT_SET_NO>999</ELEMENT_SET_NO><REV_AT_EPOCH>12434</REV_AT_EPOCH><BSTAR>.43928E-4</BSTAR><MEAN_MOTION_DOT>.3E-6</MEAN_MOTION_DOT><MEAN_MOTION_DDOT>0</MEAN_MOTION_DDOT></tleParameters></data></segment></body></omm>
<omm id="CCSDS_OMM_VERS" version="2.0">
<header><CREATION_DATE/><ORIGINATOR/></header><body><segment><metadata><OBJECT_NAME>ONEWEB-0573</OBJECT_NAME><OBJECT_ID>2023-004N</OBJECT_ID><CENTER_NAME>EARTH</CENTER_NAME><REF_FRAME>TEME</REF_FRAME><TIME_SYSTEM>UTC</TIME_SYSTEM><MEAN_ELEMENT_THEORY>SGP4</MEAN_ELEMENT_THEORY></metadata><data><meanElements><EPOCH>2025-07-24T13:19:53.935968</EPOCH><MEAN_MOTION>13.18685780</MEAN_MOTION><ECCENTRICITY>.0001297</ECCENTRICITY><INCLINATION>87.9106</INCLINATION><RA_OF_ASC_NODE>40.6003</RA_OF_ASC_NODE><ARG_OF_PERICENTER>59.1169</ARG_OF_PERICENTER><MEAN_ANOMALY>301.0091</MEAN_ANOMALY></meanElements><tleParameters><EPHEMERIS_TYPE>0</EPHEMERIS_TYPE><CLASSIFICATION_TYPE>U</CLASSIFICATION_TYPE><NORAD_CAT_ID>55152</NORAD_CAT_ID><ELEMENT_SET_NO>999</ELEMENT_SET_NO><REV_AT_EPOCH>12651</REV_AT_EPOCH><BSTAR>.25402E-3</BSTAR><MEAN_MOTION_DOT>.113E-5</MEAN_MOTION_DOT><MEAN_MOTION_DDOT>0</MEAN_MOTION_DDOT></tleParameters></data></segment></body></omm>

</ndm>
